ONEWEB-0144             
1 47290U 20100AJ  24359.83629800 -.00000264  00000+0 -76868-3 0  9995
2 47290  87.8884  98.0428 0001808 117.6553 242.4759 13.12444874193827
ONEWEB-0145             
1 47291U 20100AK  24359.80710142  .00000445  00000+0  12019-2 0  9999
2 47291  87.8884  98.0737 0001640 110.5424 249.5881 13.12445911194013
ONEWEB-0146             
1 47292U 20100AL  24359.80386001  .00000383  00000+0  10293-2 0  9996
2 47292  87.8886  98.0594 0001456  89.8367 270.2929 13.12446528193924
ONEWEB-0147             
1 47293U 20100AM  24359.76979257 -.00000363  00000+0 -10450-2 0  9998
2 47293  87.8883  98.0528 0001424 116.5054 243.6220 13.12446199193815
ONEWEB-0115             
1 48042U 21025A   24359.91420513 -.00000265  00000+0 -76015-3 0  9992
2 48042  87.8915  67.4763 0001716 100.2962 259.8361 13.13469781182802
ONEWEB-0152             
1 48043U 21025B   24359.92688917 -.00000543  00000+0 -15213-2 0  9999
2 48043  87.8918  67.4788 0001691 102.1696 257.9623 13.13470221182766
ONEWEB-0153             
1 48044U 21025C   24359.75232167 -.00000168  00000+0 -49386-3 0  9995
2 48044  87.8923  67.5064 0001817 105.7714 254.3616 13.13467861182737
ONEWEB-0154             
1 48045U 21025D   24359.90150364 -.00000068  00000+0 -22028-3 0  9994
2 48045  87.8920  67.4826 0001649 101.8292 258.3022 13.13467725182713
